{
    "links": {
        "self": "http://www.neowsapp.com/rest/v1/neo/3843060?api_key=iIulBulltgU6a56xZRHN4H3l9WmuAYTsLGpBGhQ2"
    },
    "id": "3843060",
    "neo_reference_id": "3843060",
    "name": "(2019 MS2)",
    "designation": "2019 MS2",
    "nasa_jpl_url": "http://ssd.jpl.nasa.gov/sbdb.cgi?sstr=3843060",
    "absolute_magnitude_h": 25.1,
    "estimated_diameter": {
        "kilometers": {
            "estimated_diameter_min": 0.0253837029,
            "estimated_diameter_max": 0.0567596853
        },
        "meters": {
            "estimated_diameter_min": 25.3837029364,
            "estimated_diameter_max": 56.7596852866
        },
        "miles": {
            "estimated_diameter_min": 0.0157726969,
            "estimated_diameter_max": 0.0352688224
        },
        "feet": {
            "estimated_diameter_min": 83.279867942,
            "estimated_diameter_max": 186.2194458756
        }
    },
    "is_potentially_hazardous_asteroid": false,
    "close_approach_data": [
        {
            "close_approach_date": "2019-07-04",
            "close_approach_date_full": "2019-Jul-04 17:00",
            "epoch_date_close_approach": 1562259600000,
            "relative_velocity": {
                "kilometers_per_second": "11.1335856519",
                "kilometers_per_hour": "40080.9083469786",
                "miles_per_hour": "24904.7177448212"
            },
            "miss_distance": {
                "astronomical": "0.0544967985",
                "lunar": "21.1992546165",
                "kilometers": "8152604.977419195",
                "miles": "5065793.828987091"
            },
            "orbiting_body": "Earth"
        }
    ],
    "orbital_data": {
        "orbit_id": "3",
        "orbit_determination_date": "2019-11-14 09:20:07",
        "first_observation_date": "2019-06-10",
        "last_observation_date": "2019-07-03",
        "data_arc_in_days": 23,
        "observations_used": 28,
        "orbit_uncertainty": "7",
        "minimum_orbit_intersection": ".0328268",
        "jupiter_tisserand_invariant": "3.415",
        "epoch_osculation": "2459000.5",
        "eccentricity": ".5378840208682854",
        "semi_major_axis": "2.224543081563162",
        "inclination": "12.69180691375767",
        "ascending_node_longitude": "104.2883825887512",
        "orbital_period": "1211.880111623117",
        "perihelion_distance": "1.027996904257242",
        "perihelion_argument": "201.61708635",
        "aphelion_distance": "3.421089258869081",
        "perihelion_time": "2458687.840670987310",
        "mean_anomaly": "92.87829494438708",
        "mean_motion": ".2970590874024977",
        "equinox": "J2000",
        "orbit_class": {
            "orbit_class_type": "AMO",
            "orbit_class_description": "Near-Earth asteroid orbits similar to that of 1221 Amor",
            "orbit_class_range": "1.017 AU < q (perihelion) < 1.3 AU"
        }
    },
    "is_sentry_object": false
}